UMBRA-07                
1 58297U 23174AT  26190.11602848  .00006117  00000+0  38487-3 0  9993
2 58297  97.3780 245.0514 0002902  32.6896 327.4513 15.09545703146729
UMBRA-09                
1 60541U 24149CB  26190.21045289  .00010667  00000+0  51691-3 0  9999
2 60541  97.6970 277.8023 0001785 214.0416 146.0703 15.18723998104069
UMBRA-10                
1 60547U 24149CH  26189.81468238  .00010309  00000+0  49974-3 0  9996
2 60547  97.6970 277.4291 0001195 174.7318 185.3929 15.18720503104016
UMBRA-11                
1 66748U 25276CL  26190.14150378  .00015144  00000+0  56314-3 0  9996
2 66748  97.4192 264.6474 0002023 203.5117 156.6030 15.27610143 33843
UMBRA-12                
1 67371U 26004J   26189.94140441  .00003185  00000+0  34005-3 0  9990
2 67371  97.8021 188.4115 0007773  69.7129 290.4923 14.89500319 26545
