{"fetched_at":"2026-07-10T07:59:27.382Z","source":"https://celestrak.org/NORAD/elements/gp.php?NAME=UMBRA&FORMAT=JSON","constellation":"umbra","records":[{"OBJECT_NAME":"UMBRA-07","OBJECT_ID":"2023-174AT","EPOCH":"2026-07-09T02:47:04.860672","CLASSIFICATION_TYPE":"U","MEAN_MOTION":15.09545703,"ECCENTRICITY":0.0002902,"INCLINATION":97.378,"RA_OF_ASC_NODE":245.0514,"ARG_OF_PERICENTER":32.6896,"MEAN_ANOMALY":327.4513,"EPHEMERIS_TYPE":0,"NORAD_CAT_ID":58297,"ELEMENT_SET_NO":999,"REV_AT_EPOCH":14672,"BSTAR":0.0003848664,"MEAN_MOTION_DOT":0.00006117,"MEAN_MOTION_DDOT":0},{"OBJECT_NAME":"UMBRA-09","OBJECT_ID":"2024-149CB","EPOCH":"2026-07-09T05:03:03.129696","CLASSIFICATION_TYPE":"U","MEAN_MOTION":15.18723998,"ECCENTRICITY":0.0001785,"INCLINATION":97.697,"RA_OF_ASC_NODE":277.8023,"ARG_OF_PERICENTER":214.0416,"MEAN_ANOMALY":146.0703,"EPHEMERIS_TYPE":0,"NORAD_CAT_ID":60541,"ELEMENT_SET_NO":999,"REV_AT_EPOCH":10406,"BSTAR":0.00051690564,"MEAN_MOTION_DOT":0.00010667,"MEAN_MOTION_DDOT":0},{"OBJECT_NAME":"UMBRA-10","OBJECT_ID":"2024-149CH","EPOCH":"2026-07-08T19:33:08.557632","CLASSIFICATION_TYPE":"U","MEAN_MOTION":15.18720503,"ECCENTRICITY":0.00011958,"INCLINATION":97.697,"RA_OF_ASC_NODE":277.4291,"ARG_OF_PERICENTER":174.7318,"MEAN_ANOMALY":185.3929,"EPHEMERIS_TYPE":0,"NORAD_CAT_ID":60547,"ELEMENT_SET_NO":999,"REV_AT_EPOCH":10401,"BSTAR":0.00049974411,"MEAN_MOTION_DOT":0.00010309,"MEAN_MOTION_DDOT":0},{"OBJECT_NAME":"UMBRA-11","OBJECT_ID":"2025-276CL","EPOCH":"2026-07-09T03:23:45.926592","CLASSIFICATION_TYPE":"U","MEAN_MOTION":15.27610143,"ECCENTRICITY":0.00020232,"INCLINATION":97.4192,"RA_OF_ASC_NODE":264.6474,"ARG_OF_PERICENTER":203.5117,"MEAN_ANOMALY":156.603,"EPHEMERIS_TYPE":0,"NORAD_CAT_ID":66748,"ELEMENT_SET_NO":999,"REV_AT_EPOCH":3384,"BSTAR":0.00056314451,"MEAN_MOTION_DOT":0.00015144,"MEAN_MOTION_DDOT":0},{"OBJECT_NAME":"UMBRA-12","OBJECT_ID":"2026-004J","EPOCH":"2026-07-08T22:35:37.341024","CLASSIFICATION_TYPE":"U","MEAN_MOTION":14.89500319,"ECCENTRICITY":0.00077736,"INCLINATION":97.8021,"RA_OF_ASC_NODE":188.4115,"ARG_OF_PERICENTER":69.7129,"MEAN_ANOMALY":290.4923,"EPHEMERIS_TYPE":0,"NORAD_CAT_ID":67371,"ELEMENT_SET_NO":999,"REV_AT_EPOCH":2654,"BSTAR":0.00034005453,"MEAN_MOTION_DOT":0.00003185,"MEAN_MOTION_DDOT":0}]}
